GLOBALSTAR M035         
1 25851U 99037A   25300.51440875 -.00000073  00000+0 -34808-3 0  9990
2 25851  51.9911 119.8606 0013322 191.0850 201.6860 11.04540445110884
GLOBALSTAR M032         
1 25852U 99037B   25300.26286881 -.00000001  00000+0  21119-2 0  9998
2 25852  51.9960 296.5128 0012548  29.0739 331.0757 11.19064078149576
GLOBALSTAR M051         
1 25853U 99037C   25300.37377575 -.00000070  00000+0  40876-4 0  9991
2 25853  51.9781  82.0030 0001397 102.3233 257.7734 11.42205538147494
GLOBALSTAR M030         
1 25854U 99037D   25300.30833649 -.00000111  00000+0 -75727-3 0  9993
2 25854  51.9874 239.8682 0002957 293.6305  66.4202 11.55113572165316
GLOBALSTAR M048         
1 25872U 99041A   25300.53785051 -.00000059  00000+0  30316-3 0  9991
2 25872  51.9406  21.7609 0013440  56.2728  45.4419 11.33859517139999
GLOBALSTAR M026         
1 25873U 99041B   25300.29240597 -.00000063  00000+0  46740-4 0  9990
2 25873  52.0004 236.9225 0001818 113.5878  27.1872 11.06851106163116
GLOBALSTAR M043         
1 25874U 99041C   25300.33491301 -.00000084  00000+0 -47503-3 0  9998
2 25874  51.9362 135.1531 0013531 171.7068   0.2974 11.25696400137755
GLOBALSTAR M028         
1 25875U 99041D   25300.02754816 -.00000081  00000+0  12414-3 0  9997
2 25875  51.9602 159.9395 0063491 358.6999   1.3689 12.50590471206677
